*******************************************************************************
 Revised: July 31, 2013             Moon / (Earth)                          301
 
 GEOPHYSICAL DATA (updated 2018-Aug-15):
  Vol. mean radius, km  = 1737.53+-0.03    Mass, x10^22 kg       =    7.349
  Radius (gravity), km  = 1738.0           Surface emissivity    =    0.92
  Radius (IAU), km      = 1737.4           GM, km^3/s^2          = 4902.800066
  Density, g/cm^3       =    3.3437        GM 1-sigma, km^3/s^2  =  +-0.0001  
  V(1,0)                =   +0.21          Surface accel., m/s^2 =    1.62
  Earth/Moon mass ratio = 81.3005690769    Farside crust. thick. = ~80 - 90 km
  Mean crustal density  = 2.97+-.07 g/cm^3 Nearside crust. thick.= 58+-8 km 
  Heat flow, Apollo 15  = 3.1+-.6 mW/m^2   Mean angular diameter = 31'05.2"
  Heat flow, Apollo 17  = 2.2+-.5 mW/m^2   Sid. rot. rate, rad/s = 0.0000026617
  Geometric Albedo      = 0.12             Mean solar day        = 29.5306 d
  Obliquity to orbit    = 6.67 deg         Orbit period          = 27.321582 d
  Semi-major axis, a    = 384400 km        Eccentricity          = 0.05490
  Mean motion, rad/s    = 2.6616995x10^-6  Inclination           = 5.145 deg
  Apsidal period        = 3231.50 d        Nodal period          = 6798.38 d
                                 Perihelion  Aphelion    Mean
  Solar Constant (W/m^2)         1414+-7     1323+-7     1368+-7
  Maximum Planetary IR (W/m^2)   1314        1226        1268
  Minimum Planetary IR (W/m^2)      5.2         5.2         5.2
********************************************************************************


*******************************************************************************
Ephemeris / WWW_USER Tue Mar  5 18:29:47 2024 Pasadena, USA      / Horizons
*******************************************************************************
Target body name: Moon (301)                      {source: DE441}
Center body name: Earth (399)                     {source: DE441}
Center-site name: BODY CENTER
*******************************************************************************
Start time      : A.D. 2024-Feb-14 00:00:00.0000 TDB
Stop  time      : A.D. 2024-Mar-12 23:59:00.0000 TDB
Step-size       : 360 minutes
*******************************************************************************
Center geodetic : 0.0, 0.0, 0.0                   {E-lon(deg),Lat(deg),Alt(km)}
Center cylindric: 0.0, 0.0, 0.0                   {E-lon(deg),Dxy(km),Dz(km)}
Center radii    : 6378.137, 6378.137, 6356.752 km {Equator_a, b, pole_c}
Output units    : KM-S
Calendar mode   : Mixed Julian/Gregorian
Output type     : GEOMETRIC cartesian states
Output format   : 3 (position, velocity, LT, range, range-rate)
EOP file        : eop.240305.p240529
EOP coverage    : DATA-BASED 1962-JAN-20 TO 2024-MAR-05. PREDICTS-> 2024-MAY-28
Reference frame : Ecliptic of J2000.0
*******************************************************************************
JDTDB
   X     Y     Z
   VX    VY    VZ
   LT    RG    RR
*******************************************************************************
$$SOE
2460377.500000000 = A.D. 2024-Mar-08 00:00:00.0000 TDB 
 X = 2.504062394638311E+05 Y =-2.596838257781563E+05 Z =-2.899384894965550E+04
 VX= 7.500108334557628E-01 VY= 7.842928581594195E-01 VZ= 5.068530250228559E-02
 LT= 1.207205362203314E+00 RG= 3.619110628457118E+05 RR=-4.788563091435157E-02
2460377.750000000 = A.D. 2024-Mar-08 06:00:00.0000 TDB 
 X = 2.661032636638890E+05 Y =-2.422368584386439E+05 Z =-2.784178551151408E+04
 VX= 7.028714836964038E-01 VY= 8.306905960109685E-01 VZ= 5.595879688499483E-02
 LT= 1.203906746431708E+00 RG= 3.609221627155445E+05 RR=-4.362568722911214E-02
2460378.000000000 = A.D. 2024-Mar-08 12:00:00.0000 TDB 
 X = 2.807473513123495E+05 Y =-2.238195341315858E+05 Z =-2.657775870967982E+04
 VX= 6.525474501243382E-01 VY= 8.740967533724062E-01 VZ= 6.104760966875544E-02
 LT= 1.200926343871168E+00 RG= 3.600286605060906E+05 RR=-3.905652543750535E-02
2460378.250000000 = A.D. 2024-Mar-08 18:00:00.0000 TDB 
 X = 2.942718024984883E+05 Y =-2.044992758507300E+05 Z =-2.520605882921517E+04
 VX= 5.992366578950091E-01 VY= 9.142537983059184E-01 VZ= 6.592393637066796E-02
 LT= 1.198285513109628E+00 RG= 3.592369593609266E+05 RR=-3.420436164384898E-02
2460378.500000000 = A.D. 2024-Mar-09 00:00:00.0000 TDB 
 X = 3.066144792784182E+05 Y =-1.843489158302169E+05 Z =-2.373157030917768E+04
 VX= 5.431634196342296E-01 VY= 9.509189795984445E-01 VZ= 7.056062211232839E-02
 LT= 1.196003583199903E+00 RG= 3.585528539843065E+05 RR=-2.909927533944503E-02
2460378.750000000 = A.D. 2024-Mar-09 06:00:00.0000 TDB 
 X = 3.177183628975654E+05 Y =-1.634463394093646E+05 Z =-2.215975412488032E+04
 VX= 4.845771645363218E-01 VY= 9.838677271835714E-01 VZ= 7.493149473372990E-02
 LT= 1.194097585356469E+00 RG= 3.579814502058807E+05 RR=-2.377491501796028E-02
2460379.000000000 = A.D. 2024-Mar-09 12:00:00.0000 TDB 
 X = 3.275320776929040E+05 Y =-1.418740566912580E+05 Z =-2.049662293886216E+04
 VX= 4.237506249658722E-01 VY= 1.012896920683566E+00 VZ= 7.901169973393479E-02
 LT= 1.192582009134548E+00 RG= 3.575270918850244E+05 RR=-1.826811364557428E-02
2460379.250000000 = A.D. 2024-Mar-09 18:00:00.0000 TDB 
 X = 3.360103700931178E+05 Y =-1.197187059360231E+05 Z =-1.874870908118513E+04
 VX= 3.609774967694642E-01 VY= 1.037827924921292E+00 VZ= 8.277802768152609E-02
 LT= 1.191468589394002E+00 RG= 3.571932970442207E+05 RR=-1.261841996382018E-02
2460379.500000000 = A.D. 2024-Mar-10 00:00:00.0000 TDB 
 X = 3.431145317201453E+05 Y =-9.707049479675325E+04 Z =-1.692302562606350E+04
 VX= 2.965696113163643E-01 VY= 1.058509293765876E+00 VZ= 8.620922441777024E-02
 LT= 1.190766129782892E+00 RG= 3.569827049507601E+05 RR=-6.867555384619459E-03
2460379.750000000 = A.D. 2024-Mar-10 06:00:00.0000 TDB 
 X = 3.488127566493948E+05 Y =-7.402258756211170E+04 Z =-1.502702104005118E+04
 VX= 2.308536786370317E-01 VY= 1.074819051447452E+00 VZ= 8.928627453207777E-02
 LT= 1.190480367644295E+00 RG= 3.568970356168268E+05 RR=-1.058809711003946E-03
2460380.000000000 = A.D. 2024-Mar-10 12:00:00.0000 TDB 
 X = 3.530804243835671E+05 Y =-5.067044840209638E+04 Z =-1.306852807648651E+04
 VX= 1.641676805337264E-01 VY= 1.086666473351760E+00 VZ= 9.199264924351935E-02
 LT= 1.190613884189048E+00 RG= 3.569370628699620E+05 RR= 4.763608215731068E-03
2460380.250000000 = A.D. 2024-Mar-10 18:00:00.0000 TDB 
 X = 3.559003019807147E+05 Y =-2.711115211696173E+04 Z =-1.105570777090949E+04
 VX= 9.685700870242128E-02 VY= 1.093993305774885E+00 VZ= 9.431451096592441E-02
 LT= 1.191166062534769E+00 RG= 3.571026017734801E+05 RR= 1.055524666531322E-02
2460380.500000000 = A.D. 2024-Mar-11 00:00:00.0000 TDB 
 X = 3.572626609615562E+05 Y =-3.442674973311856E+03 Z =-8.996989542493187E+03
 VX= 2.927045411957838E-02 VY= 1.096774385315781E+00 VZ= 9.624086843085244E-02
 LT= 1.192133094830928E+00 RG= 3.573925107625109E+05 RR= 1.627209394896691E-02
2460380.750000000 = A.D. 2024-Mar-11 06:00:00.0000 TDB 
 X = 3.571653069912998E+05 Y = 2.023682118832305E+04 Z =-6.901008518676867E+03
 VX=-3.824383947604974E-02 VY= 1.095017641723949E+00 VZ= 9.776367812672648E-02
 LT= 1.193508038222459E+00 RG= 3.578047084214689E+05 RR= 2.187124816102110E-02
2460381.000000000 = A.D. 2024-Mar-11 12:00:00.0000 TDB 
 X = 3.556135227980233E+05 Y = 4.382969829675910E+04 Z =-4.776541269876969E+03
 VX=-1.053423445117274E-01 VY= 1.088763492007236E+00 VZ= 9.887788991849139E-02
 LT= 1.195280918031553E+00 RG= 3.583362044171758E+05 RR= 2.731155461566732E-02
2460381.250000000 = A.D. 2024-Mar-11 18:00:00.0000 TDB 
 X = 3.526199271705048E+05 Y = 6.723953199602156E+04 Z =-2.632441162445386E+03
 VX=-1.716899335373434E-01 VY= 1.078083657438341E+00 VZ= 9.958143697322175E-02
 LT= 1.197438875134136E+00 RG= 3.589831436812177E+05 RR= 3.255419272705567E-02
2460381.500000000 = A.D. 2024-Mar-12 00:00:00.0000 TDB 
 X = 3.482042551134024E+05 Y = 9.037177025714359E+04 Z =-4.775745130405776E+02
 VX=-2.369633805114294E-01 VY= 1.063079455305819E+00 VZ= 9.987517214610825E-02
 LT= 1.199966353351297E+00 RG= 3.597408625884817E+05 RR= 3.756319748031038E-02
2460381.750000000 = A.D. 2024-Mar-12 06:00:00.0000 TDB 
 X = 3.423930661829261E+05 Y = 1.131343500345306E+05 Z = 1.679241340357599E+03
 VX=-3.008544971988624E-01 VY= 1.043879635482254E+00 VZ= 9.976275497929904E-02
 LT= 1.202845321676481E+00 RG= 3.606039555791928E+05 RR= 4.230590322175578E-02
2460382.000000000 = A.D. 2024-Mar-12 12:00:00.0000 TDB 
 X = 3.352193896118915E+05 Y = 1.354382630154934E+05 Z = 3.829297043823019E+03
 VX=-3.630728405304467E-01 VY= 1.020637844840775E+00 VZ= 9.925049506234418E-02
 LT= 1.206055525412791E+00 RG= 3.615663504479820E+05 RR= 4.675330127439907E-02
2460382.250000000 = A.D. 2024-Mar-12 18:00:00.0000 TDB 
 X = 3.267223160055178E+05 Y = 1.571980633962465E+05 Z = 5.964046439832040E+03
 VX=-4.233479467642543E-01 VY= 9.935298105496461E-01 VZ= 9.834715870825478E-02
 LT= 1.209574759817625E+00 RG= 3.626213903804853E+05 RR= 5.088030660366867E-02
